{
  "norad_id": 52581,
  "name": "STARLINK-3915",
  "history": [
    {
      "epoch": "2026-03-28T13:15:46.761120Z",
      "apogee_km": 540.8052075412497,
      "perigee_km": 538.6523677081414,
      "latitude_deg": -3.056224517760123e-05,
      "longitude_deg": 9.525711874972252,
      "height_km": 540.5944564609256,
      "semi_major_axis_km": 6917.865787624695,
      "eccentricity": 0.0001556,
      "inclination_deg": 53.2188,
      "raan_deg": 34.442,
      "arg_perigee_deg": 88.4072,
      "mean_anomaly_deg": 271.7098,
      "mean_motion_rev_day": 15.08844777
    },
    {
      "epoch": "2026-03-29T05:09:38.579904Z",
      "apogee_km": 540.8401035703964,
      "perigee_km": 538.6499021282943,
      "latitude_deg": -4.0485097961045786e-05,
      "longitude_deg": 127.43369636590192,
      "height_km": 540.6183711615114,
      "semi_major_axis_km": 6917.882002849345,
      "eccentricity": 0.0001583,
      "inclination_deg": 53.2186,
      "raan_deg": 31.4688,
      "arg_perigee_deg": 88.8405,
      "mean_anomaly_deg": 271.2768,
      "mean_motion_rev_day": 15.08839472
    },
    {
      "epoch": "2026-03-30T01:49:39.423072Z",
      "apogee_km": 540.870839673622,
      "perigee_km": 538.6183774218789,
      "latitude_deg": 3.084822395773403e-05,
      "longitude_deg": 172.71597722865744,
      "height_km": 540.6083673951558,
      "semi_major_axis_km": 6917.88160854775,
      "eccentricity": 0.0001628,
      "inclination_deg": 53.2184,
      "raan_deg": 27.6033,
      "arg_perigee_deg": 88.3884,
      "mean_anomaly_deg": 271.7295,
      "mean_motion_rev_day": 15.08839601
    },
    {
      "epoch": "2026-03-30T05:00:25.467840Z",
      "apogee_km": 540.9019811793423,
      "perigee_km": 538.565124506591,
      "latitude_deg": 2.752519885933065e-05,
      "longitude_deg": 124.30014605603753,
      "height_km": 540.6566299424866,
      "semi_major_axis_km": 6917.870552842966,
      "eccentricity": 0.0001689,
      "inclination_deg": 53.2195,
      "raan_deg": 27.0099,
      "arg_perigee_deg": 91.3542,
      "mean_anomaly_deg": 268.7644,
      "mean_motion_rev_day": 15.08843218
    },
    {
      "epoch": "2026-03-30T05:00:25.468704Z",
      "apogee_km": 540.9017736432252,
      "perigee_km": 538.5653320427082,
      "latitude_deg": 3.0294751642706472e-05,
      "longitude_deg": 124.30014450524588,
      "height_km": 540.6566250379477,
      "semi_major_axis_km": 6917.870552842966,
      "eccentricity": 0.00016887,
      "inclination_deg": 53.2195,
      "raan_deg": 27.0099,
      "arg_perigee_deg": 91.3542,
      "mean_anomaly_deg": 268.7644,
      "mean_motion_rev_day": 15.08843218
    },
    {
      "epoch": "2026-03-31T12:48:08.353728Z",
      "apogee_km": 540.7762279265917,
      "perigee_km": 538.6963001510258,
      "latitude_deg": 4.787839066159671e-05,
      "longitude_deg": 0.11658729480796283,
      "height_km": 540.6221591974544,
      "semi_major_axis_km": 6917.873264038808,
      "eccentricity": 0.00015033,
      "inclination_deg": 53.2188,
      "raan_deg": 21.0608,
      "arg_perigee_deg": 89.4626,
      "mean_anomaly_deg": 270.6539,
      "mean_motion_rev_day": 15.08842331
    },
    {
      "epoch": "2026-04-01T12:38:53.702016Z",
      "apogee_km": 540.7049783255889,
      "perigee_km": 538.6725211203202,
      "latitude_deg": 1.3665878866323368e-05,
      "longitude_deg": -3.0135055869119616,
      "height_km": 540.6767842380488,
      "semi_major_axis_km": 6917.825749722954,
      "eccentricity": 0.0001469,
      "inclination_deg": 53.2195,
      "raan_deg": 16.599,
      "arg_perigee_deg": 95.208,
      "mean_anomaly_deg": 264.908,
      "mean_motion_rev_day": 15.08857876
    },
    {
      "epoch": "2026-04-02T18:51:14.988096Z",
      "apogee_km": 540.582115529709,
      "perigee_km": 538.9218221771853,
      "latitude_deg": -5.561297656524203e-05,
      "longitude_deg": -102.99156072098992,
      "height_km": 540.7479933824285,
      "semi_major_axis_km": 6917.888968853447,
      "eccentricity": 0.00012,
      "inclination_deg": 53.2192,
      "raan_deg": 10.9502,
      "arg_perigee_deg": 96.911,
      "mean_anomaly_deg": 263.2018,
      "mean_motion_rev_day": 15.08837193
    },
    {
      "epoch": "2026-04-02T22:02:01.163328Z",
      "apogee_km": 540.6790984011595,
      "perigee_km": 538.803938249981,
      "latitude_deg": 1.534370159642531e-05,
      "longitude_deg": -151.40888181674254,
      "height_km": 540.7246805909097,
      "semi_major_axis_km": 6917.8785183255695,
      "eccentricity": 0.00013553,
      "inclination_deg": 53.2192,
      "raan_deg": 10.3558,
      "arg_perigee_deg": 95.3398,
      "mean_anomaly_deg": 264.7749,
      "mean_motion_rev_day": 15.08840612
    },
    {
      "epoch": "2026-04-03T18:42:02.391840Z",
      "apogee_km": 541.8502604919895,
      "perigee_km": 537.6303553341631,
      "latitude_deg": 5.372474758125754e-06,
      "longitude_deg": -106.12777188715846,
      "height_km": 540.4279045191037,
      "semi_major_axis_km": 6917.877307913076,
      "eccentricity": 0.000305,
      "inclination_deg": 53.219,
      "raan_deg": 6.4908,
      "arg_perigee_deg": 84.4035,
      "mean_anomaly_deg": 275.7305,
      "mean_motion_rev_day": 15.08841008
    },
    {
      "epoch": "2026-04-04T01:03:35.595936Z",
      "apogee_km": 540.7513382836532,
      "perigee_km": 538.8450320640277,
      "latitude_deg": -6.065399181443094e-07,
      "longitude_deg": 157.03350918563962,
      "height_km": 540.7033845554139,
      "semi_major_axis_km": 6917.93518517384,
      "eccentricity": 0.00013778,
      "inclination_deg": 53.2178,
      "raan_deg": 5.3016,
      "arg_perigee_deg": 90.57,
      "mean_anomaly_deg": 269.545,
      "mean_motion_rev_day": 15.08822073
    },
    {
      "epoch": "2026-04-05T10:26:41.639424Z",
      "apogee_km": 540.6038506197674,
      "perigee_km": 538.8108837166837,
      "latitude_deg": 5.2961491077098734e-05,
      "longitude_deg": 8.643492398069917,
      "height_km": 540.4860246256959,
      "semi_major_axis_km": 6917.844367168225,
      "eccentricity": 0.00012959,
      "inclination_deg": 53.2184,
      "raan_deg": 359.0578,
      "arg_perigee_deg": 82.4843,
      "mean_anomaly_deg": 277.6297,
      "mean_motion_rev_day": 15.08851785
    },
    {
      "epoch": "2026-04-06T02:20:32.551872Z",
      "apogee_km": 540.5969205385809,
      "perigee_km": 538.7789161500414,
      "latitude_deg": 2.3999816581586324e-05,
      "longitude_deg": 126.55524828465074,
      "height_km": 540.4794605603917,
      "semi_major_axis_km": 6917.824918344311,
      "eccentricity": 0.0001314,
      "inclination_deg": 53.2183,
      "raan_deg": 356.0846,
      "arg_perigee_deg": 83.4087,
      "mean_anomaly_deg": 276.7055,
      "mean_motion_rev_day": 15.08858148
    },
    {
      "epoch": "2026-04-07T10:08:13.886016Z",
      "apogee_km": 540.5024426011223,
      "perigee_km": 538.8002516004353,
      "latitude_deg": 5.368808348271801e-05,
      "longitude_deg": 2.3799746256012675,
      "height_km": 540.2875171167399,
      "semi_major_axis_km": 6917.788347100779,
      "eccentricity": 0.00012303,
      "inclination_deg": 53.2178,
      "raan_deg": 350.1373,
      "arg_perigee_deg": 72.2233,
      "mean_anomaly_deg": 287.8894,
      "mean_motion_rev_day": 15.08870113
    },
    {
      "epoch": "2026-04-07T16:29:46.112928Z",
      "apogee_km": 540.5546100177135,
      "perigee_km": 538.7546006420062,
      "latitude_deg": 2.3354339715545354e-05,
      "longitude_deg": -94.45558038042253,
      "height_km": 540.3091609437741,
      "semi_major_axis_km": 6917.7916053298595,
      "eccentricity": 0.0001301,
      "inclination_deg": 53.2178,
      "raan_deg": 348.9472,
      "arg_perigee_deg": 74.4447,
      "mean_anomaly_deg": 285.6689,
      "mean_motion_rev_day": 15.08869047
    },
    {
      "epoch": "2026-04-07T22:51:18.630144Z",
      "apogee_km": 541.0252195662497,
      "perigee_km": 538.3846792941513,
      "latitude_deg": -1.0837428359855185e-05,
      "longitude_deg": 168.7080488337577,
      "height_km": 541.6364445688166,
      "semi_major_axis_km": 6917.8419494302,
      "eccentricity": 0.00019085,
      "inclination_deg": 53.2194,
      "raan_deg": 347.7575,
      "arg_perigee_deg": 141.6461,
      "mean_anomaly_deg": 218.4667,
      "mean_motion_rev_day": 15.08852576
    },
    {
      "epoch": "2026-04-09T19:22:07.118112Z",
      "apogee_km": 541.526102840623,
      "perigee_km": 537.8513538137358,
      "latitude_deg": 5.7088712552027906e-05,
      "longitude_deg": -149.14764264562902,
      "height_km": 540.1882185590664,
      "semi_major_axis_km": 6917.825728327179,
      "eccentricity": 0.0002656,
      "inclination_deg": 53.2174,
      "raan_deg": 339.4319,
      "arg_perigee_deg": 77.6046,
      "mean_anomaly_deg": 282.5244,
      "mean_motion_rev_day": 15.08857883
    },
    {
      "epoch": "2026-04-09T20:57:30.211776Z",
      "apogee_km": 541.3757725612659,
      "perigee_km": 538.0054069595353,
      "latitude_deg": -6.39301569760933e-05,
      "longitude_deg": -173.35644505849928,
      "height_km": 540.1997363374408,
      "semi_major_axis_km": 6917.827589760401,
      "eccentricity": 0.0002436,
      "inclination_deg": 53.2175,
      "raan_deg": 339.1347,
      "arg_perigee_deg": 76.7892,
      "mean_anomaly_deg": 283.3371,
      "mean_motion_rev_day": 15.08857274
    },
    {
      "epoch": "2026-04-11T20:39:06.222816Z",
      "apogee_km": 540.6660073480889,
      "perigee_km": 538.8493682030794,
      "latitude_deg": 1.3415355576868873e-06,
      "longitude_deg": -179.63634234793528,
      "height_km": 540.5733535851192,
      "semi_major_axis_km": 6917.894687775583,
      "eccentricity": 0.0001313,
      "inclination_deg": 53.2176,
      "raan_deg": 330.2135,
      "arg_perigee_deg": 84.9387,
      "mean_anomaly_deg": 275.1755,
      "mean_motion_rev_day": 15.08835322
    }
  ]
}